TROLL                   
1 62658U 25009BB  26068.22522958  .00013174  00000+0  48220-3 0  9994
2 62658  97.3932 150.7169 0001816  59.1850 300.9568 15.28164315118170
STARLINK-33644          
1 63414U 25065R   26068.81683483  .00021640  00000+0  79326-3 0  9991
2 63414  43.0030 106.8035 0002477 265.9603  94.0966 15.27593119 52851
